# From MPEC 2024-A43
C/2022 L2 (ATLAS),h,03/12.2716/2024,129.3144,39.2413,199.9223,1.001477,2.692686,2000,6.5,4.0
# From MPEC 2024-A43
P/2022 L3 (ATLAS),e,21.5430,29.8065,10.3544,6.502145,0.0594455,0.62772961,26.0376,01/11.0/2024,2000,g 16.5,4.0
# From MPEC 2022-N37
C/2022 L4 (PANSTARRS),e,141.2431,66.0623,125.3291,284.8561,0.0002050,0.98941882,0.0000,12/08.8946/2021,2000,g 14.0,4.0
# From MPEC 2023-FK0
C/2022 N1 (Attard-Maury),e,164.7358,301.8721,41.0569,36.97562,0.0043836,0.95995049,2.1389,01/11.0/2024,2000,g 16.9,4.0
# From MPEC 2023-XP6
C/2022 N2 (PANSTARRS),h,07/31.5621/2025,5.5025,319.7395,75.3575,1.003795,3.826324,2000,6.0,4.0
# From MPEC 2024-A43
C/2022 O1 (ATLAS),h,02/15.9088/2022,71.0412,49.9174,268.9247,1.003323,7.431974,2000,6.0,4.0
# From MPEC 2023-HD1
P/2022 O2 (PANSTARRS),e,9.4240,330.4900,48.6338,6.305818,0.0622432,0.72135545,22.9652,01/11.0/2024,2000,g 16.2,4.0
# From MPEC 2023-N01
C/2022 P1 (NEOWISE),e,154.6052,205.0825,249.9422,18.47681,0.0124098,0.91367087,5.0691,01/11.0/2024,2000,g 13.0,4.0
# From MPEC 2023-XP6
P/2022 P2 (ZTF),e,12.4400,291.2103,137.6626,4.488125,0.1036589,0.55817403,56.9160,01/11.0/2024,2000,g 12.5,4.0
# From MPEC 2023-HD1
C/2022 P3 (ZTF),e,59.5164,72.2223,0.1347,250.3994,0.0002487,0.98976694,0.0000,07/27.4301/2022,2000,g  9.0,4.0
# From MPEC 2023-R20
C/2022 Q2 (ATLAS),e,151.4831,352.9493,44.0722,32.83256,0.0052390,0.94992554,1.8042,01/11.0/2024,2000,g 13.0,4.0
# From MPEC 2024-A43
C/2022 QE78 (ATLAS),h,09/10.1738/2025,36.5487,119.9444,0.3638,1.003753,5.480599,2000,5.0,4.0
# From MPEC 2023-W26
P/2022 R1 (PANSTARRS),e,7.3778,176.0076,222.0606,7.230696,0.0506914,0.50585496,4.8119,01/11.0/2024,2000,g 11.5,4.0
# From MPEC 2022-Y15
C/2022 R2 (ATLAS),e,52.9055,60.4106,78.3501,420.0978,0.0001145,0.99849561,0.0000,10/25.2607/2022,2000,g 17.0,4.0
# From MPEC 2024-A43
C/2022 R3 (Leonard),h,03/05.4930/2023,43.0824,8.2420,72.8854,1.001092,5.129362,2000,9.0,4.0
# From MPEC 2022-X67
P/2022 R4 (PANSTARRS),e,21.0201,176.6280,197.4600,3.836849,0.1311421,0.49003650,72.0824,01/11.0/2024,2000,g 16.5,4.0
# From MPEC 2022-WQ9
P/2022 R5 (PANSTARRS),e,15.2943,115.0505,240.5616,3.068760,0.1833410,0.19524775,108.8607,01/11.0/2024,2000,g 16.0,4.0
# From MPEC 2024-A43
C/2022 R6 (PANSTARRS),h,08/25.5521/2025,57.0216,150.7743,319.8603,1.004376,6.566994,2000,5.0,4.0
# From MPEC 2023-HD1
P/2022 S1 (PANSTARRS),e,34.5789,136.0931,262.7900,6.408318,0.0607558,0.50807620,30.9701,01/11.0/2024,2000,g 15.1,4.0
# From MPEC 2022-VC5
C/2022 S3 (PANSTARRS),h,01/21.6930/2023,78.5386,157.3149,267.9656,1.000400,0.838336,2000,17.0,4.0
# From MPEC 2024-A43
C/2022 S4 (Lemmon),e,101.2214,220.1748,268.5386,1298,0.0000211,0.99787203,0.0000,07/18.6873/2024,2000,g  8.0,4.0
# From MPEC 2023-HD1
C/2022 S5 (PANSTARRS),e,136.5321,214.8596,232.7992,20.45520,0.0106536,0.89346676,4.3623,01/11.0/2024,2000,g 16.3,4.0
# From MPEC 2024-A43
C/2022 T1 (Lemmon),e,22.5438,236.9187,324.3110,28480,0.0000002,0.99987904,0.0000,02/17.4809/2024,2000,g  9.0,4.0
# From MPEC 2024-A43
C/2022 U1 (Leonard),e,128.1494,72.5256,78.5758,7472,0.0000015,0.99943763,0.0000,03/25.8199/2024,2000,g  8.5,4.0
# From MPEC 2023-VM5
C/2022 U2 (ATLAS),e,48.2454,304.4613,147.9275,96.59969,0.0010381,0.98625117,0.0000,01/14.2369/2023,2000,g 16.0,4.0
# From MPEC 2024-A43
C/2022 U3 (Bok),h,07/28.1227/2024,33.6407,272.7871,189.0564,1.003094,4.826758,2000,7.5,4.0
# From MPEC 2023-W26
C/2022 U4 (Bok),e,52.0364,132.9211,89.0071,3125,0.0000056,0.99907254,0.0000,08/03.6618/2023,2000,g 10.5,4.0
# From MPEC 2024-A43
C/2022 V2 (Lemmon),e,98.9036,332.8708,168.9500,36.84078,0.0044077,0.94398643,0.3089,01/11.0/2024,2000,g 12.0,4.0
# From MPEC 2023-CD7
P/2022 W1 (Rankin),e,13.4659,38.8160,17.8382,6.969645,0.0535659,0.51664599,25.8215,01/11.0/2024,2000,g 12.5,4.0
# From MPEC 2023-XP6
C/2022 W2 (ATLAS),e,63.5247,320.4515,123.2737,342.7364,0.0001553,0.99088803,0.0000,03/08.7488/2023,2000,g 11.5,4.0
# From MPEC 2024-A43
C/2022 W3 (Leonard),e,103.5600,132.2699,116.5248,280.4156,0.0002099,0.99501541,0.0000,06/22.7771/2023,2000,g 13.0,4.0
# From MPEC 2023-M14
C/2022 Y1 (Hogan),e,18.8556,285.9035,174.7776,12.57609,0.0220997,0.76478430,9.0529,01/11.0/2024,2000,g  9.0,4.0
# From MPEC 2023-TM6
C/2022 Y2 (Lemmon),e,165.8975,216.3545,105.5643,19.90268,0.0111004,0.87218779,3.2652,01/11.0/2024,2000,g 13.5,4.0
# From MPEC 2023-KD6
C/2023 A1 (Leonard),e,94.7389,318.3034,159.2483,225.4010,0.0002913,0.99185997,0.0000,03/18.7128/2023,2000,g 14.5,4.0
# From MPEC 2023-J95
C/2023 A2 (SWAN),e,94.7104,94.4792,142.5553,449.7815,0.0001033,0.99789440,0.0000,01/20.3726/2023,2000,g 13.5,4.0
# From MPEC 2024-A43
C/2023 A3 (Tsuchinshan-ATLAS),h,09/27.7464/2024,139.1145,21.5590,308.4880,1.000120,0.391465,2000,5.0,4.0
# From MPEC 2023-KD6
P/2023 B1 (PANSTARRS),e,14.5882,78.5689,81.3273,7.055603,0.0525900,0.12966885,13.5629,01/11.0/2024,2000,g  5.5,4.0
# From MPEC 2023-XP6
C/2023 B2 (ATLAS),e,40.7714,218.1201,317.3854,600.7316,0.0000669,0.99709890,0.0000,03/10.4867/2023,2000,g 14.5,4.0
# From MPEC 2023-F81
P/2023 B3 (PANSTARRS),e,9.1606,154.0048,240.1140,4.546450,0.1016706,0.12311935,124.3228,01/11.0/2024,2000,g 10.5,4.0
# From MPEC 2024-A43
C/2023 C2 (ATLAS),e,48.3163,301.0117,357.4569,3347,0.0000051,0.99929249,0.0000,11/16.8151/2024,2000,g  7.0,4.0
# From MPEC 2023-XP6
C/2023 E1 (ATLAS),e,38.3086,164.5695,105.9096,19.36331,0.0115674,0.94697422,2.2428,01/11.0/2024,2000,g 15.5,4.0
# From MPEC 2023-N01
C/2023 F1 (PANSTARRS),e,131.7524,25.2482,216.6593,258.4561,0.0002372,0.99339049,0.0000,06/28.3525/2023,2000,g 16.0,4.0
# From MPEC 2023-T65
C/2023 F3 (ATLAS),h,02/02.7849/2025,145.9590,109.4490,265.5400,1.004256,5.190280,2000,6.0,4.0
# From MPEC 2023-M14
C/2023 H1 (PANSTARRS),e,21.7779,292.6383,333.8420,1549,0.0000162,0.99713193,0.0000,11/28.3820/2024,2000,g 12.6,4.0
# From MPEC 2024-A43
C/2023 H2 (Lemmon),e,113.7536,217.0448,150.6474,246.5498,0.0002546,0.99637237,0.0000,10/29.1890/2023,2000,g 14.0,4.0
# From MPEC 2023-R20
C/2023 H3 (PANSTARRS),e,2.4894,55.1001,193.3249,13.62990,0.0195869,0.61608297,359.2363,01/11.0/2024,2000,g 10.0,4.0
# From MPEC 2023-SQ0
A/2023 H4,e,76.6188,230.8133,64.9011,140.0367,0.0005948,0.98486564,0.0000,08/08.8086/2023,2000,g 18.0,22.0
# From MPEC 2024-A43
C/2023 H5 (Lemmon),h,06/30.1441/2025,97.8722,159.4827,60.0780,1.000410,4.312991,2000,7.0,4.0
# From MPEC 2024-A43
C/2023 K1 (ATLAS),e,137.9985,223.7056,337.4628,775.2346,0.0000457,0.99736915,0.0000,09/07.7288/2023,2000,g 13.0,4.0
# From MPEC 2023-N01
P/2023 M1 (PANSTARRS),e,12.2883,216.8627,79.6867,6.847917,0.0550005,0.58731301,1.5186,01/11.0/2024,2000,g 13.5,4.0
# From MPEC 2023-XP6
P/2023 M2 (PANSTARRS),e,19.7253,83.2648,243.0293,5.563650,0.0751042,0.36940982,12.7417,01/11.0/2024,2000,g 12.5,4.0
# From MPEC 2024-A43
P/2023 M4 (ATLAS),e,7.5926,296.2963,320.6745,5.451915,0.0774249,0.27923088,49.2471,01/11.0/2024,2000,g  7.5,4.0
# From MPEC 2024-A43
C/2023 P1 (Nishimura),e,132.4768,66.8352,116.2978,57.11974,0.0022831,0.99605888,0.0000,09/17.6424/2023,2000,g 10.0,4.0
# From MPEC 2023-XP6
C/2023 Q1 (PANSTARRS),h,12/01.2820/2024,36.6679,7.1600,84.4252,1.004694,2.575177,2000,10.0,4.0
# From MPEC 2023-XP6
C/2023 Q2 (PANSTARRS),e,104.0559,92.6805,171.7246,342.3759,0.0001556,0.99062614,0.0000,06/24.0828/2024,2000,g 11.5,4.0
# From MPEC 2024-A43
C/2023 R1 (PANSTARRS),h,04/13.9763/2026,149.3149,62.5500,144.2946,1.000987,3.570105,2000,6.0,4.0
# From MPEC 2024-A43
C/2023 R2 (PANSTARRS),h,08/12.1261/2024,30.7018,188.9389,337.2618,1.000454,0.905359,2000,10.5,4.0
# From MPEC 2023-UR6
A/2023 R3,e,12.0864,347.3517,86.8933,671.8065,0.0000566,0.99797925,0.0000,12/18.1834/2023,2000,g 20.0,22.0
# From MPEC 2024-A43
C/2023 RN3 (ATLAS),e,10.3580,207.0673,130.3429,10.15589,0.0304528,0.49064952,10.8896,01/11.0/2024,2000,g  7.5,4.0
# From MPEC 2024-A43
P/2023 S1,e,9.1465,317.4928,179.9453,3.854859,0.1302241,0.32047356,306.6984,01/11.0/2024,2000,g 11.5,4.0
# From MPEC 2023-XP6
C/2023 S2 (ATLAS),e,20.4857,230.5614,78.1121,151.5257,0.0005284,0.99295348,0.0000,10/15.3802/2023,2000,g 15.0,4.0
# From MPEC 2023-XP6
C/2023 S3 (Lemmon),e,140.4984,233.8338,281.5697,28.48984,0.0064814,0.97086062,0.0000,01/19.6228/2024,2000,g 16.0,4.0
# From MPEC 2024-A43
P/2023 T1 (PANSTARRS),e,6.6099,249.5741,202.8742,4.234350,0.1131160,0.33469330,344.9652,01/11.0/2024,2000,g 14.0,4.0
# From MPEC 2024-A43
C/2023 T2 (Borisov),e,48.5971,317.5333,111.1926,230.2878,0.0002820,0.99133498,0.0000,12/22.7901/2023,2000,g 14.5,4.0
# From MPEC 2024-A43
C/2023 T3 (Fuls),e,27.2218,246.0009,302.8508,680.0847,0.0000556,0.99478244,0.0000,01/25.4079/2025,2000,g  8.5,4.0
# From MPEC 2024-A43
C/2023 U1 (Fuls),e,108.1441,305.8074,255.5774,1533,0.0000164,0.99675501,0.0000,10/12.4654/2024,2000,g  8.0,4.0
# From MPEC 2024-A43
C/2023 V1 (Lemmon),e,102.0098,15.0264,103.3044,9765,0.0000010,0.99947843,0.0000,07/13.0990/2025,2000,g  8.5,4.0
# From MPEC 2023-XP6
P/2023 V2 (PANSTARRS),e,9.8817,95.4829,330.6074,7.257959,0.0504060,0.57226265,358.7779,01/11.0/2024,2000,g 13.5,4.0
# From MPEC 2024-A43
C/2023 V3 (PANSTARRS),e,40.2674,91.4722,291.5700,13.24993,0.0204354,0.66249659,3.2198,01/11.0/2024,2000,g 11.5,4.0
# From MPEC 2024-A43
C/2023 V4 (Camarasa-Duszanowicz),h,05/30.3672/2024,67.1320,66.3214,50.8529,1.001166,1.121754,2000,12.0,4.0
# From MPEC 2023-W26
C/2023 V5 (Leonard),h,12/13.4373/2023,73.9607,31.4432,56.3951,1.028221,0.849134,2000,21.5,4.0
# From MPEC 2023-XP6
P/2023 V6 (PANSTARRS),e,3.9766,190.0314,194.0831,5.343201,0.0797998,0.17970600,30.9327,01/11.0/2024,2000,g 11.5,4.0
# From MPEC 2024-A43
C/2023 X1 (Leonard),e,110.5870,137.0121,321.4786,166.4248,0.0004591,0.99428838,0.0000,10/18.0934/2023,2000,g 13.5,3.2
# From MPEC 2024-A43
C/2023 X2 (Lemmon),h,12/26.0149/2025,76.9795,66.3118,64.4336,1.001097,5.102110,2000,8.5,3.2
# From MPEC 2024-A43
P/2023 X3 (PANSTARRS),e,4.4834,62.0137,40.7896,4.249396,0.1125157,0.28692128,348.5445,01/11.0/2024,2000,g 15.5,4.0
# From MPEC 2024-A43
C/2023 X4 (Hogan),e,11.5948,28.7663,100.5186,9.910888,0.0315890,0.63089002,355.7468,01/11.0/2024,2000,g 12.0,4.0
# From MPEC 2023-Y60
